NORAD_CAT_ID,OBJECT_NAME,OBJECT_TYPE,EPOCH,MEAN_MOTION,ECCENTRICITY,INCLINATION,RA_OF_ASC_NODE,ARG_OF_PERICENTER,MEAN_ANOMALY,BSTAR,MEAN_MOTION_DOT,MEAN_MOTION_DDOT,TLE_LINE0,TLE_LINE1,TLE_LINE2,SEMIMAJOR_AXIS,PERIOD,APOGEE,PERIGEE,DECAYED
53285.0,STARLINK-4173,PAYLOAD,2024-02-06 04:04:10,15.08845662,0.0001815,53.2189,7.1964,71.1631,288.9557,2.2512e-05,7e-07,0.0,0 STARLINK-4173,1 53285U 22086AV  24037.16956297  .00000070  00000-0  22512-4 0  9995,2 53285  53.2189   7.1964 0001815  71.1631 288.9557 15.08845662 85916,6917.863,95.437,540.984,538.472,0.0
53285.0,STARLINK-4173,PAYLOAD,2024-02-06 05:39:33,15.08847517,0.0001733,53.2192,6.9047,81.2797,278.8392,4.7434e-05,4.67e-06,0.0,0 STARLINK-4173,1 53285U 22086AV  24037.23580050  .00000467  00000-0  47434-4 0  9993,2 53285  53.2192   6.9047 0001733  81.2797 278.8392 15.08847517 86088,6917.857,95.437,540.921,538.524,0.0
53285.0,STARLINK-4173,PAYLOAD,2024-02-07 07:05:42,15.08851609,0.0001743,53.2216,2.1412,77.5964,282.5223,4.0226e-05,3.52e-06,0.0,0 STARLINK-4173,1 53285U 22086AV  24038.29563474  .00000352  00000-0  40226-4 0  9996,2 53285  53.2216   2.1412 0001743  77.5964 282.5223 15.08851609 86086,6917.845,95.437,540.916,538.504,0.0
53285.0,STARLINK-4173,PAYLOAD,2024-02-07 15:02:39,15.08836952,0.0001311,53.22,0.6612,134.5499,225.5601,6.4864e-06,-1.85e-06,0.0,0 STARLINK-4173,1 53285U 22086AV  24038.62684085 -.00000185  00000-0  64864-5 0  9995,2 53285  53.2200   0.6612 0001311 134.5499 225.5601 15.08836952 86139,6917.89,95.438,540.662,538.848,0.0
53285.0,STARLINK-4173,PAYLOAD,2024-02-07 21:24:12,15.08839813,0.0001845,53.22,359.4741,89.1595,270.9608,-7.787e-05,-1.527e-05,0.0,0 STARLINK-4173,1 53285U 22086AV  24038.89180708 -.00001527  00000-0 -77870-4 0  9999,2 53285  53.2200 359.4741 0001845  89.1595 270.9608 15.08839813 86333,6917.881,95.438,541.022,538.47,0.0
53285.0,STARLINK-4173,PAYLOAD,2024-02-08 02:10:21,15.08836802,0.0001713,53.219,358.5833,93.1934,266.9254,-3.3688e-05,-8.24e-06,0.0,0 STARLINK-4173,1 53285U 22086AV  24039.09052729 -.00000824  00000-0 -33688-4 0  9991,2 53285  53.2190 358.5833 0001713  93.1934 266.9254 15.08836802 86369,6917.89,95.438,540.94,538.57,0.0
53285.0,STARLINK-4173,PAYLOAD,2024-02-08 21:14:59,15.08840643,0.0001773,53.2185,355.0145,124.0925,236.0235,-5.3801e-05,-1.144e-05,0.0,0 STARLINK-4173,1 53285U 22086AV  24039.88540668 -.00001144  00000-0 -53801-4 0  9997,2 53285  53.2185 355.0145 0001773 124.0925 236.0235 15.08840643 86489,6917.878,95.438,540.97,538.517,0.0
53285.0,STARLINK-4173,PAYLOAD,2024-02-09 03:36:31,15.08846047,0.0001594,53.2186,353.8253,112.0392,248.0769,-1.2101e-05,-4.81e-06,0.0,0 STARLINK-4173,1 53285U 22086AV  24040.15036286 -.00000481  00000-0 -12101-4 0  9996,2 53285  53.2186 353.8253 0001594 112.0392 248.0769 15.08846047 86368,6917.862,95.437,540.83,538.624,0.0
53285.0,STARLINK-4173,PAYLOAD,2024-02-10 03:27:18,15.08838049,0.0001561,53.2193,349.3656,107.4028,252.7135,0.00012392,1.685e-05,0.0,0 STARLINK-4173,1 53285U 22086AV  24041.14396773  .00001685  00000-0  12392-3 0  9992,2 53285  53.2193 349.3656 0001561 107.4028 252.7135 15.08838049 86510,6917.886,95.438,540.831,538.671,0.0
53285.0,STARLINK-4173,PAYLOAD,2024-02-10 19:21:10,15.08849303,0.0002118,53.2194,346.3928,113.2114,246.9102,-1.6476e-05,-5.51e-06,0.0,0 STARLINK-4173,1 53285U 22086AV  24041.80636781 -.00000551  00000-0 -16476-4 0  9992,2 53285  53.2194 346.3928 0002118 113.2114 246.9102 15.08849303 86772,6917.852,95.437,541.182,538.252,0.0
53285.0,STARLINK-4173,PAYLOAD,2024-02-11 04:53:28,15.08844953,0.0001492,53.2192,344.6059,94.0498,266.0665,0.0001039,1.366e-05,0.0,0 STARLINK-4173,1 53285U 22086AV  24042.20380683  .00001366  00000-0  10390-3 0  9995,2 53285  53.2192 344.6059 0001492  94.0498 266.0665 15.08844953 86673,6917.865,95.437,540.762,538.698,0.0
53285.0,STARLINK-4173,PAYLOAD,2024-02-12 04:44:14,15.08860369,0.0001477,53.2191,340.1463,110.0206,250.0946,0.00021214,3.092e-05,0.0,0 STARLINK-4173,1 53285U 22086AV  24043.19739405  .00003092  00000-0  21214-3 0  9999,2 53285  53.2191 340.1463 0001477 110.0206 250.0946 15.08860369 86822,6917.818,95.436,540.705,538.661,0.0
53285.0,STARLINK-4173,PAYLOAD,2024-02-13 02:59:40,15.0883537,0.0001576,53.2193,335.9813,72.8533,287.2631,-2.0572e-05,-6.15e-06,0.0,0 STARLINK-4173,1 53285U 22086AV  24044.12477827 -.00000615  00000-0 -20572-4 0  9997,2 53285  53.2193 335.9813 0001576  72.8533 287.2631 15.08835370 86965,6917.895,95.438,540.85,538.669,0.0
53285.0,STARLINK-4173,PAYLOAD,2024-02-13 12:31:59,15.0883762,0.00015,53.2191,334.1972,82.8652,277.2511,-3.0981e-05,-7.81e-06,0.0,0 STARLINK-4173,1 53285U 22086AV  24044.52221785 -.00000781  00000-0 -30981-4 0  9990,2 53285  53.2191 334.1972 0001500  82.8652 277.2511 15.08837620 87181,6917.888,95.438,540.79,538.715,0.0
53285.0,STARLINK-4173,PAYLOAD,2024-02-14 04:25:48,15.08867328,0.0001404,53.2191,331.225,103.321,256.7939,0.00011934,1.613e-05,0.0,0 STARLINK-4173,1 53285U 22086AV  24045.18459327  .00001613  00000-0  11934-3 0  9997,2 53285  53.2191 331.2250 0001404 103.3210 256.7939 15.08867328 87128,6917.797,95.436,540.633,538.691,0.0
53285.0,STARLINK-4173,PAYLOAD,2024-02-14 12:22:45,15.08848636,0.0001441,53.2187,329.7385,92.6324,267.4833,-4.9986e-05,-1.084e-05,0.0,0 STARLINK-4173,1 53285U 22086AV  24045.51580822 -.00001084  00000-0 -49986-4 0  9992,2 53285  53.2187 329.7385 0001441  92.6324 267.4833 15.08848636 87337,6917.854,95.437,540.716,538.722,0.0
53285.0,STARLINK-4173,PAYLOAD,2024-02-15 01:05:51,15.08837664,0.0001561,53.2184,327.3595,85.1607,274.9563,9.5108e-05,1.226e-05,0.0,0 STARLINK-4173,1 53285U 22086AV  24046.04573736  .00001226  00000-0  95108-4 0  9990,2 53285  53.2184 327.3595 0001561  85.1607 274.9563 15.08837664 87258,6917.888,95.438,540.832,538.673,0.0
53285.0,STARLINK-4173,PAYLOAD,2024-02-15 04:16:37,15.08842686,0.000167,53.2195,326.7603,90.5775,269.5409,0.00014076,1.953e-05,0.0,0 STARLINK-4173,1 53285U 22086AV  24046.17821189  .00001953  00000-0  14076-3 0  9993,2 53285  53.2195 326.7603 0001670  90.5775 269.5409 15.08842686 87439,6917.872,95.437,540.892,538.582,0.0
53285.0,STARLINK-4173,PAYLOAD,2024-02-15 21:45:52,15.08839397,0.000188,53.2185,323.4911,119.2171,240.901,3.4775e-05,2.65e-06,0.0,0 STARLINK-4173,1 53285U 22086AV  24046.90685659  .00000265  00000-0  34775-4 0  9998,2 53285  53.2185 323.4911 0001880 119.2171 240.9010 15.08839397 87544,6917.882,95.438,541.048,538.447,0.0
53285.0,STARLINK-4173,PAYLOAD,2024-02-16 04:07:24,15.08852298,0.0001388,53.2182,322.3009,103.6425,256.4721,-1.1525e-05,-4.71e-06,0.0,0 STARLINK-4173,1 53285U 22086AV  24047.17181015 -.00000471  00000-0 -11525-4 0  9994,2 53285  53.2182 322.3009 0001388 103.6425 256.4721 15.08852298 87589,6917.843,95.437,540.668,538.748,0.0
53285.0,STARLINK-4173,PAYLOAD,2024-02-16 18:25:54,15.08831434,0.0001594,53.2193,319.6257,95.2067,264.9107,3.5707e-05,2.8e-06,0.0,0 STARLINK-4173,1 53285U 22086AV  24047.76798718  .00000280  00000-0  35707-4 0  9997,2 53285  53.2193 319.6257 0001594  95.2067 264.9107 15.08831434 87516,6917.907,95.438,540.874,538.669,0.0
53285.0,STARLINK-4173,PAYLOAD,2024-02-16 21:36:40,15.08833146,0.0001556,53.2177,319.0341,92.0544,268.0627,6.1499e-05,6.91e-06,0.0,0 STARLINK-4173,1 53285U 22086AV  24047.90046383  .00000691  00000-0  61499-4 0  9990,2 53285  53.2177 319.0341 0001556  92.0544 268.0627 15.08833146 87692,6917.901,95.438,540.843,538.69,0.0
53285.0,STARLINK-4173,PAYLOAD,2024-02-17 03:58:12,15.08843284,0.0001358,53.2171,317.8422,82.4958,277.6188,4.3966e-05,4.12e-06,0.0,0 STARLINK-4173,1 53285U 22086AV  24048.16541707  .00000412  00000-0  43966-4 0  9999,2 53285  53.2171 317.8422 0001358  82.4958 277.6188 15.08843284 87573,6917.87,95.437,540.675,538.796,0.0
53285.0,STARLINK-4173,PAYLOAD,2024-02-17 10:19:44,15.08840897,0.0001475,53.2169,316.6519,73.0342,287.0812,3.3764e-05,2.49e-06,0.0,0 STARLINK-4173,1 53285U 22086AV  24048.43037953  .00000249  00000-0  33764-4 0  9995,2 53285  53.2169 316.6519 0001475  73.0342 287.0812 15.08840897 87775,6917.878,95.437,540.763,538.722,0.0
53285.0,STARLINK-4173,PAYLOAD,2024-02-17 21:27:26,15.08840511,0.0001279,53.2164,314.5708,85.0819,275.0319,4.6544e-05,4.53e-06,0.0,0 STARLINK-4173,1 53285U 22086AV  24048.89406080  .00000453  00000-0  46544-4 0  9993,2 53285  53.2164 314.5708 0001279  85.0819 275.0319 15.08840511 87841,6917.879,95.438,540.629,538.859,0.0
53285.0,STARLINK-4173,PAYLOAD,2024-02-18 10:10:31,15.08853346,0.0001206,53.217,312.1939,94.7286,265.3844,0.00018295,2.626e-05,0.0,0 STARLINK-4173,1 53285U 22086AV  24049.42397135  .00002626  00000-0  18295-3 0  9998,2 53285  53.2170 312.1939 0001206  94.7286 265.3844 15.08853346 87769,6917.84,95.437,540.539,538.87,0.0
53285.0,STARLINK-4173,PAYLOAD,2024-02-18 22:53:36,15.08843069,0.0001591,53.2189,309.8209,107.3706,252.7461,0.00010299,1.352e-05,0.0,0 STARLINK-4173,1 53285U 22086AV  24049.95389750  .00001352  00000-0  10299-3 0  9991,2 53285  53.2189 309.8209 0001591 107.3706 252.7461 15.08843069 88001,6917.871,95.437,540.837,538.635,0.0
53285.0,STARLINK-4173,PAYLOAD,2024-02-19 03:39:45,15.08849021,0.0001462,53.2176,308.923,86.6978,273.4181,0.0001387,1.921e-05,0.0,0 STARLINK-4173,1 53285U 22086AV  24050.15261373  .00001921  00000-0  13870-3 0  9995,2 53285  53.2176 308.9230 0001462  86.6978 273.4181 15.08849021 87875,6917.853,95.437,540.729,538.706,0.0
53285.0,STARLINK-4173,PAYLOAD,2024-02-19 10:01:19,15.08834367,0.0001625,53.2166,307.7311,81.7039,278.4138,-6.7826e-05,-1.367e-05,0.0,0 STARLINK-4173,1 53285U 22086AV  24050.41758194 -.00001367  00000-0 -67826-4 0  9993,2 53285  53.2166 307.7311 0001625  81.7039 278.4138 15.08834367 87915,6917.898,95.438,540.887,538.638,0.0
53285.0,STARLINK-4173,PAYLOAD,2024-02-19 22:44:24,15.08835536,0.0001599,53.2166,305.3525,85.1506,274.9669,-0.0001692,-2.98e-05,0.0,0 STARLINK-4173,1 53285U 22086AV  24050.94750313 -.00002980  00000-0 -16920-3 0  9996,2 53285  53.2166 305.3525 0001599  85.1506 274.9669 15.08835536 88159,6917.894,95.438,540.865,538.653,0.0
